{
  "type": "FeatureCollection",
  "features": [
    {
      "type": "Feature",
      "properties": {
        "norad_id": 30090,
        "name": "FENGYUN 1C DEB",
        "group": "fengyun-1c-debris",
        "lat": -14.54006071126407,
        "lon": -14.1473532053521,
        "alt_km": 810.2234670146099,
        "timestamp": "2025-12-20T14:38:02.243656+00:00",
        "meta_object_name": "FENGYUN 1C DEB",
        "meta_object_id": "1999-025QT",
        "meta_epoch": "2025-12-20T00:52:00.598656",
        "meta_mean_motion": 14.29041904,
        "meta_eccentricity": 0.00581809,
        "meta_inclination": 99.4091,
        "meta_ra_of_asc_node": 167.699,
        "meta_arg_of_pericenter": 91.089,
        "meta_mean_anomaly": 33.464,
        "meta_ephemeris_type": 0,
        "meta_classification_type": "U",
        "meta_norad_cat_id": 30090,
        "meta_element_set_no": 999,
        "meta_rev_at_epoch": 98374,
        "meta_bstar": 0.00024206148,
        "meta_mean_motion_dot": 5.74e-06,
        "meta_mean_motion_ddot": 0,
        "tle_line1": "1 30090U 99025QT  25354.03611804  .00000574  00000+0  24206-3 0  9991",
        "tle_line2": "2 30090  99.4091 167.6990 0058180  91.0890  33.4640 14.29041904983748"
      },
      "geometry": {
        "type": "Point",
        "coordinates": [
          -14.1473532053521,
          -14.54006071126407
        ]
      }
    },
    {
      "type": "Feature",
      "properties": {
        "norad_id": 30092,
        "name": "FENGYUN 1C DEB",
        "group": "fengyun-1c-debris",
        "lat": 75.73147518747818,
        "lon": 136.03005573874734,
        "alt_km": 804.1047123930011,
        "timestamp": "2025-12-20T14:38:02.243666+00:00",
        "meta_object_name": "FENGYUN 1C DEB",
        "meta_object_id": "1999-025QV",
        "meta_epoch": "2025-12-20T01:29:24.847296",
        "meta_mean_motion": 14.39162724,
        "meta_eccentricity": 0.00827205,
        "meta_inclination": 98.923,
        "meta_ra_of_asc_node": 173.6147,
        "meta_arg_of_pericenter": 228.6401,
        "meta_mean_anomaly": 254.9308,
        "meta_ephemeris_type": 0,
        "meta_classification_type": "U",
        "meta_norad_cat_id": 30092,
        "meta_element_set_no": 999,
        "meta_rev_at_epoch": 98854,
        "meta_bstar": 0.00039293948,
        "meta_mean_motion_dot": 1.217e-05,
        "meta_mean_motion_ddot": 0,
        "tle_line1": "1 30092U 99025QV  25354.06209314  .00001217  00000+0  39294-3 0  9993",
        "tle_line2": "2 30092  98.9230 173.6147 0082720 228.6401 254.9308 14.39162724988542"
      },
      "geometry": {
        "type": "Point",
        "coordinates": [
          136.03005573874734,
          75.73147518747818
        ]
      }
    },
    {
      "type": "Feature",
      "properties": {
        "norad_id": 30093,
        "name": "FENGYUN 1C DEB",
        "group": "fengyun-1c-debris",
        "lat": 61.263629221573865,
        "lon": -147.03369509768564,
        "alt_km": 755.5656258060171,
        "timestamp": "2025-12-20T14:38:02.243676+00:00",
        "meta_object_name": "FENGYUN 1C DEB",
        "meta_object_id": "1999-025QW",
        "meta_epoch": "2025-12-20T03:24:52.784640",
        "meta_mean_motion": 14.43730546,
        "meta_eccentricity": 0.00696945,
        "meta_inclination": 98.8678,
        "meta_ra_of_asc_node": 229.0224,
        "meta_arg_of_pericenter": 315.5978,
        "meta_mean_anomaly": 197.995,
        "meta_ephemeris_type": 0,
        "meta_classification_type": "U",
        "meta_norad_cat_id": 30093,
        "meta_element_set_no": 999,
        "meta_rev_at_epoch": 98910,
        "meta_bstar": 0.00059281001,
        "meta_mean_motion_dot": 2.025e-05,
        "meta_mean_motion_ddot": 0,
        "tle_line1": "1 30093U 99025QW  25354.14227760  .00002025  00000+0  59281-3 0  9994",
        "tle_line2": "2 30093  98.8678 229.0224 0069694 315.5978 197.9950 14.43730546989100"
      },
      "geometry": {
        "type": "Point",
        "coordinates": [
          -147.03369509768564,
          61.263629221573865
        ]
      }
    },
    {
      "type": "Feature",
      "properties": {
        "norad_id": 30095,
        "name": "FENGYUN 1C DEB",
        "group": "fengyun-1c-debris",
        "lat": -5.670130914650788,
        "lon": 96.00210526904512,
        "alt_km": 685.7708290942228,
        "timestamp": "2025-12-20T14:38:02.243687+00:00",
        "meta_object_name": "FENGYUN 1C DEB",
        "meta_object_id": "1999-025QY",
        "meta_epoch": "2025-12-19T18:20:38.657184",
        "meta_mean_motion": 14.82233328,
        "meta_eccentricity": 0.01645277,
        "meta_inclination": 99.2212,
        "meta_ra_of_asc_node": 275.9528,
        "meta_arg_of_pericenter": 310.3972,
        "meta_mean_anomaly": 48.2975,
        "meta_ephemeris_type": 0,
        "meta_classification_type": "U",
        "meta_norad_cat_id": 30095,
        "meta_element_set_no": 999,
        "meta_rev_at_epoch": 99439,
        "meta_bstar": 0.0013659966,
        "meta_mean_motion_dot": 0.0001375,
        "meta_mean_motion_ddot": 0,
        "tle_line1": "1 30095U 99025QY  25353.76433631  .00013750  00000+0  13660-2 0  9996",
        "tle_line2": "2 30095  99.2212 275.9528 0164527 310.3972  48.2975 14.82233328994397"
      },
      "geometry": {
        "type": "Point",
        "coordinates": [
          96.00210526904512,
          -5.670130914650788
        ]
      }
    },
    {
      "type": "Feature",
      "properties": {
        "norad_id": 30096,
        "name": "FENGYUN 1C DEB",
        "group": "fengyun-1c-debris",
        "lat": -29.345863740736743,
        "lon": -110.91587078466719,
        "alt_km": 734.9424868516653,
        "timestamp": "2025-12-20T14:38:02.243697+00:00",
        "meta_object_name": "FENGYUN 1C DEB",
        "meta_object_id": "1999-025QZ",
        "meta_epoch": "2025-12-20T05:16:09.178752",
        "meta_mean_motion": 14.31703747,
        "meta_eccentricity": 0.00794692,
        "meta_inclination": 99.1472,
        "meta_ra_of_asc_node": 73.8706,
        "meta_arg_of_pericenter": 210.6698,
        "meta_mean_anomaly": 148.9826,
        "meta_ephemeris_type": 0,
        "meta_classification_type": "U",
        "meta_norad_cat_id": 30096,
        "meta_element_set_no": 999,
        "meta_rev_at_epoch": 98653,
        "meta_bstar": 0.00023934003,
        "meta_mean_motion_dot": 6.12e-06,
        "meta_mean_motion_ddot": 0,
        "tle_line1": "1 30096U 99025QZ  25354.21955068  .00000612  00000+0  23934-3 0  9990",
        "tle_line2": "2 30096  99.1472  73.8706 0079469 210.6698 148.9826 14.31703747986536"
      },
      "geometry": {
        "type": "Point",
        "coordinates": [
          -110.91587078466719,
          -29.345863740736743
        ]
      }
    },
    {
      "type": "Feature",
      "properties": {
        "norad_id": 30099,
        "name": "FENGYUN 1C DEB",
        "group": "fengyun-1c-debris",
        "lat": -69.45553325679461,
        "lon": 90.35372972691978,
        "alt_km": 795.3137197892465,
        "timestamp": "2025-12-20T14:38:02.243708+00:00",
        "meta_object_name": "FENGYUN 1C DEB",
        "meta_object_id": "1999-025RC",
        "meta_epoch": "2025-12-20T04:56:06.204768",
        "meta_mean_motion": 14.25947087,
        "meta_eccentricity": 0.00614209,
        "meta_inclination": 98.5399,
        "meta_ra_of_asc_node": 66.3231,
        "meta_arg_of_pericenter": 222.6586,
        "meta_mean_anomaly": 152.1514,
        "meta_ephemeris_type": 0,
        "meta_classification_type": "U",
        "meta_norad_cat_id": 30099,
        "meta_element_set_no": 999,
        "meta_rev_at_epoch": 98296,
        "meta_bstar": 0.00021836031,
        "meta_mean_motion_dot": 4.88e-06,
        "meta_mean_motion_ddot": 0,
        "tle_line1": "1 30099U 99025RC  25354.20562737  .00000488  00000+0  21836-3 0  9999",
        "tle_line2": "2 30099  98.5399  66.3231 0061420 222.6586 152.1514 14.25947087982961"
      },
      "geometry": {
        "type": "Point",
        "coordinates": [
          90.35372972691978,
          -69.45553325679461
        ]
      }
    },
    {
      "type": "Feature",
      "properties": {
        "norad_id": 30102,
        "name": "FENGYUN 1C DEB",
        "group": "fengyun-1c-debris",
        "lat": 3.6743349912060914,
        "lon": 1.456086571989038,
        "alt_km": 729.3583588760675,
        "timestamp": "2025-12-20T14:38:02.243718+00:00",
        "meta_object_name": "FENGYUN 1C DEB",
        "meta_object_id": "1999-025RF",
        "meta_epoch": "2025-12-19T23:43:53.622048",
        "meta_mean_motion": 14.22140574,
        "meta_eccentricity": 0.0141283,
        "meta_inclination": 98.3789,
        "meta_ra_of_asc_node": 1.4081,
        "meta_arg_of_pericenter": 339.0269,
        "meta_mean_anomaly": 86.9033,
        "meta_ephemeris_type": 0,
        "meta_classification_type": "U",
        "meta_norad_cat_id": 30102,
        "meta_element_set_no": 999,
        "meta_rev_at_epoch": 98061,
        "meta_bstar": 0.00022744,
        "meta_mean_motion_dot": 5.16e-06,
        "meta_mean_motion_ddot": 0,
        "tle_line1": "1 30102U 99025RF  25353.98881507  .00000516  00000+0  22744-3 0  9998",
        "tle_line2": "2 30102  98.3789   1.4081 0141283 339.0269  86.9033 14.22140574980610"
      },
      "geometry": {
        "type": "Point",
        "coordinates": [
          1.456086571989038,
          3.6743349912060914
        ]
      }
    }
  ]
}